<?xml version="1.0" encoding="UTF-8"?>
<ndm xmlns:xsi="http://www.w3.org/2001/XMLSchema-instance" xsi:noNamespaceSchemaLocation="https://sanaregistry.org/r/ndmxml_unqualified/ndmxml-2.0.0-master-2.0.xsd">
<omm id="CCSDS_OMM_VERS" version="2.0">
<header><CREATION_DATE/><ORIGINATOR/></header><body><segment><metadata><OBJECT_NAME>KUIPER-00136</OBJECT_NAME><OBJECT_ID>2025-228R</OBJECT_ID><CENTER_NAME>EARTH</CENTER_NAME><REF_FRAME>TEME</REF_FRAME><TIME_SYSTEM>UTC</TIME_SYSTEM><MEAN_ELEMENT_THEORY>SGP4</MEAN_ELEMENT_THEORY></metadata><data><meanElements><EPOCH>2025-12-12T03:09:21.828096</EPOCH><MEAN_MOTION>15.33802306</MEAN_MOTION><ECCENTRICITY>.0005641</ECCENTRICITY><INCLINATION>51.8803</INCLINATION><RA_OF_ASC_NODE>23.4669</RA_OF_ASC_NODE><ARG_OF_PERICENTER>10.5007</ARG_OF_PERICENTER><MEAN_ANOMALY>349.6095</MEAN_ANOMALY></meanElements><tleParameters><EPHEMERIS_TYPE>0</EPHEMERIS_TYPE><CLASSIFICATION_TYPE>U</CLASSIFICATION_TYPE><NORAD_CAT_ID>65962</NORAD_CAT_ID><ELEMENT_SET_NO>999</ELEMENT_SET_NO><REV_AT_EPOCH>1032</REV_AT_EPOCH><BSTAR>.15072E-2</BSTAR><MEAN_MOTION_DOT>.49991E-3</MEAN_MOTION_DOT><MEAN_MOTION_DDOT>0</MEAN_MOTION_DDOT></tleParameters></data></segment></body></omm>
<omm id="CCSDS_OMM_VERS" version="2.0">
<header><CREATION_DATE/><ORIGINATOR/></header><body><segment><metadata><OBJECT_NAME>KUIPER-00137</OBJECT_NAME><OBJECT_ID>2025-228S</OBJECT_ID><CENTER_NAME>EARTH</CENTER_NAME><REF_FRAME>TEME</REF_FRAME><TIME_SYSTEM>UTC</TIME_SYSTEM><MEAN_ELEMENT_THEORY>SGP4</MEAN_ELEMENT_THEORY></metadata><data><meanElements><EPOCH>2025-12-11T13:14:01.803264</EPOCH><MEAN_MOTION>15.35859575</MEAN_MOTION><ECCENTRICITY>.00068419</ECCENTRICITY><INCLINATION>51.8800</INCLINATION><RA_OF_ASC_NODE>26.3441</RA_OF_ASC_NODE><ARG_OF_PERICENTER>20.6202</ARG_OF_PERICENTER><MEAN_ANOMALY>339.5059</MEAN_ANOMALY></meanElements><tleParameters><EPHEMERIS_TYPE>0</EPHEMERIS_TYPE><CLASSIFICATION_TYPE>U</CLASSIFICATION_TYPE><NORAD_CAT_ID>65963</NORAD_CAT_ID><ELEMENT_SET_NO>999</ELEMENT_SET_NO><REV_AT_EPOCH>1023</REV_AT_EPOCH><BSTAR>.15328206E-2</BSTAR><MEAN_MOTION_DOT>.54354E-3</MEAN_MOTION_DOT><MEAN_MOTION_DDOT>0</MEAN_MOTION_DDOT></tleParameters></data></segment></body></omm>
<omm id="CCSDS_OMM_VERS" version="2.0">
<header><CREATION_DATE/><ORIGINATOR/></header><body><segment><metadata><OBJECT_NAME>KUIPER-00138</OBJECT_NAME><OBJECT_ID>2025-228T</OBJECT_ID><CENTER_NAME>EARTH</CENTER_NAME><REF_FRAME>TEME</REF_FRAME><TIME_SYSTEM>UTC</TIME_SYSTEM><MEAN_ELEMENT_THEORY>SGP4</MEAN_ELEMENT_THEORY></metadata><data><meanElements><EPOCH>2025-12-12T03:23:03.712416</EPOCH><MEAN_MOTION>15.35877211</MEAN_MOTION><ECCENTRICITY>.0007925</ECCENTRICITY><INCLINATION>51.8794</INCLINATION><RA_OF_ASC_NODE>23.5355</RA_OF_ASC_NODE><ARG_OF_PERICENTER>26.5058</ARG_OF_PERICENTER><MEAN_ANOMALY>333.6332</MEAN_ANOMALY></meanElements><tleParameters><EPHEMERIS_TYPE>0</EPHEMERIS_TYPE><CLASSIFICATION_TYPE>U</CLASSIFICATION_TYPE><NORAD_CAT_ID>65964</NORAD_CAT_ID><ELEMENT_SET_NO>999</ELEMENT_SET_NO><REV_AT_EPOCH>1032</REV_AT_EPOCH><BSTAR>.13145E-2</BSTAR><MEAN_MOTION_DOT>.46546E-3</MEAN_MOTION_DOT><MEAN_MOTION_DDOT>0</MEAN_MOTION_DDOT></tleParameters></data></segment></body></omm>
<omm id="CCSDS_OMM_VERS" version="2.0">
<header><CREATION_DATE/><ORIGINATOR/></header><body><segment><metadata><OBJECT_NAME>KUIPER-00140</OBJECT_NAME><OBJECT_ID>2025-228U</OBJECT_ID><CENTER_NAME>EARTH</CENTER_NAME><REF_FRAME>TEME</REF_FRAME><TIME_SYSTEM>UTC</TIME_SYSTEM><MEAN_ELEMENT_THEORY>SGP4</MEAN_ELEMENT_THEORY></metadata><data><meanElements><EPOCH>2025-12-12T02:01:48.607104</EPOCH><MEAN_MOTION>15.35246407</MEAN_MOTION><ECCENTRICITY>.0007466</ECCENTRICITY><INCLINATION>51.8809</INCLINATION><RA_OF_ASC_NODE>23.9115</RA_OF_ASC_NODE><ARG_OF_PERICENTER>24.0656</ARG_OF_PERICENTER><MEAN_ANOMALY>336.0677</MEAN_ANOMALY></meanElements><tleParameters><EPHEMERIS_TYPE>0</EPHEMERIS_TYPE><CLASSIFICATION_TYPE>U</CLASSIFICATION_TYPE><NORAD_CAT_ID>65965</NORAD_CAT_ID><ELEMENT_SET_NO>999</ELEMENT_SET_NO><REV_AT_EPOCH>1031</REV_AT_EPOCH><BSTAR>.12124E-2</BSTAR><MEAN_MOTION_DOT>.42008E-3</MEAN_MOTION_DOT><MEAN_MOTION_DDOT>0</MEAN_MOTION_DDOT></tleParameters></data></segment></body></omm>
<omm id="CCSDS_OMM_VERS" version="2.0">
<header><CREATION_DATE/><ORIGINATOR/></header><body><segment><metadata><OBJECT_NAME>KUIPER-00141</OBJECT_NAME><OBJECT_ID>2025-228V</OBJECT_ID><CENTER_NAME>EARTH</CENTER_NAME><REF_FRAME>TEME</REF_FRAME><TIME_SYSTEM>UTC</TIME_SYSTEM><MEAN_ELEMENT_THEORY>SGP4</MEAN_ELEMENT_THEORY></metadata><data><meanElements><EPOCH>2025-12-12T02:56:48.070176</EPOCH><MEAN_MOTION>15.36458689</MEAN_MOTION><ECCENTRICITY>.0006211</ECCENTRICITY><INCLINATION>51.8801</INCLINATION><RA_OF_ASC_NODE>23.4164</RA_OF_ASC_NODE><ARG_OF_PERICENTER>10.4313</ARG_OF_PERICENTER><MEAN_ANOMALY>349.6801</MEAN_ANOMALY></meanElements><tleParameters><EPHEMERIS_TYPE>0</EPHEMERIS_TYPE><CLASSIFICATION_TYPE>U</CLASSIFICATION_TYPE><NORAD_CAT_ID>65966</NORAD_CAT_ID><ELEMENT_SET_NO>999</ELEMENT_SET_NO><REV_AT_EPOCH>1032</REV_AT_EPOCH><BSTAR>.20354E-2</BSTAR><MEAN_MOTION_DOT>.73893E-3</MEAN_MOTION_DOT><MEAN_MOTION_DDOT>0</MEAN_MOTION_DDOT></tleParameters></data></segment></body></omm>
<omm id="CCSDS_OMM_VERS" version="2.0">
<header><CREATION_DATE/><ORIGINATOR/></header><body><segment><metadata><OBJECT_NAME>KUIPER-00146</OBJECT_NAME><OBJECT_ID>2025-228W</OBJECT_ID><CENTER_NAME>EARTH</CENTER_NAME><REF_FRAME>TEME</REF_FRAME><TIME_SYSTEM>UTC</TIME_SYSTEM><MEAN_ELEMENT_THEORY>SGP4</MEAN_ELEMENT_THEORY></metadata><data><meanElements><EPOCH>2025-12-12T03:12:01.016640</EPOCH><MEAN_MOTION>15.35687638</MEAN_MOTION><ECCENTRICITY>.0007364</ECCENTRICITY><INCLINATION>51.8812</INCLINATION><RA_OF_ASC_NODE>23.4942</RA_OF_ASC_NODE><ARG_OF_PERICENTER>16.1915</ARG_OF_PERICENTER><MEAN_ANOMALY>343.9305</MEAN_ANOMALY></meanElements><tleParameters><EPHEMERIS_TYPE>0</EPHEMERIS_TYPE><CLASSIFICATION_TYPE>U</CLASSIFICATION_TYPE><NORAD_CAT_ID>65967</NORAD_CAT_ID><ELEMENT_SET_NO>999</ELEMENT_SET_NO><REV_AT_EPOCH>1032</REV_AT_EPOCH><BSTAR>.16926E-2</BSTAR><MEAN_MOTION_DOT>.59776E-3</MEAN_MOTION_DOT><MEAN_MOTION_DDOT>0</MEAN_MOTION_DDOT></tleParameters></data></segment></body></omm>
<omm id="CCSDS_OMM_VERS" version="2.0">
<header><CREATION_DATE/><ORIGINATOR/></header><body><segment><metadata><OBJECT_NAME>KUIPER-00149</OBJECT_NAME><OBJECT_ID>2025-228X</OBJECT_ID><CENTER_NAME>EARTH</CENTER_NAME><REF_FRAME>TEME</REF_FRAME><TIME_SYSTEM>UTC</TIME_SYSTEM><MEAN_ELEMENT_THEORY>SGP4</MEAN_ELEMENT_THEORY></metadata><data><meanElements><EPOCH>2025-12-11T09:42:08.972064</EPOCH><MEAN_MOTION>15.35938293</MEAN_MOTION><ECCENTRICITY>.00052845</ECCENTRICITY><INCLINATION>51.8797</INCLINATION><RA_OF_ASC_NODE>26.8543</RA_OF_ASC_NODE><ARG_OF_PERICENTER>10.9654</ARG_OF_PERICENTER><MEAN_ANOMALY>349.1447</MEAN_ANOMALY></meanElements><tleParameters><EPHEMERIS_TYPE>0</EPHEMERIS_TYPE><CLASSIFICATION_TYPE>U</CLASSIFICATION_TYPE><NORAD_CAT_ID>65968</NORAD_CAT_ID><ELEMENT_SET_NO>999</ELEMENT_SET_NO><REV_AT_EPOCH>1021</REV_AT_EPOCH><BSTAR>.15072466E-2</BSTAR><MEAN_MOTION_DOT>.53556E-3</MEAN_MOTION_DOT><MEAN_MOTION_DDOT>0</MEAN_MOTION_DDOT></tleParameters></data></segment></body></omm>
<omm id="CCSDS_OMM_VERS" version="2.0">
<header><CREATION_DATE/><ORIGINATOR/></header><body><segment><metadata><OBJECT_NAME>KUIPER-00154</OBJECT_NAME><OBJECT_ID>2025-228Y</OBJECT_ID><CENTER_NAME>EARTH</CENTER_NAME><REF_FRAME>TEME</REF_FRAME><TIME_SYSTEM>UTC</TIME_SYSTEM><MEAN_ELEMENT_THEORY>SGP4</MEAN_ELEMENT_THEORY></metadata><data><meanElements><EPOCH>2025-12-12T02:58:59.894112</EPOCH><MEAN_MOTION>15.36018686</MEAN_MOTION><ECCENTRICITY>.0006206</ECCENTRICITY><INCLINATION>51.8791</INCLINATION><RA_OF_ASC_NODE>23.4285</RA_OF_ASC_NODE><ARG_OF_PERICENTER>0.7300</ARG_OF_PERICENTER><MEAN_ANOMALY>359.3694</MEAN_ANOMALY></meanElements><tleParameters><EPHEMERIS_TYPE>0</EPHEMERIS_TYPE><CLASSIFICATION_TYPE>U</CLASSIFICATION_TYPE><NORAD_CAT_ID>65969</NORAD_CAT_ID><ELEMENT_SET_NO>999</ELEMENT_SET_NO><REV_AT_EPOCH>1032</REV_AT_EPOCH><BSTAR>.17175E-2</BSTAR><MEAN_MOTION_DOT>.61311E-3</MEAN_MOTION_DOT><MEAN_MOTION_DDOT>0</MEAN_MOTION_DDOT></tleParameters></data></segment></body></omm>

</ndm>
