KUIPER-00136            
1 65962U 25228R   25346.13150264  .00049991  00000+0  15072-2 0  9997
2 65962  51.8803  23.4669 0005641  10.5007 349.6095 15.33802306 10327
KUIPER-00137            
1 65963U 25228S   25345.55140976  .00054354  00000+0  15328-2 0  9995
2 65963  51.8800  26.3441 0006841  20.6202 339.5059 15.35859575 10237
KUIPER-00138            
1 65964U 25228T   25346.14101519  .00046546  00000+0  13145-2 0  9991
2 65964  51.8794  23.5355 0007925  26.5058 333.6332 15.35877211 10327
KUIPER-00140            
1 65965U 25228U   25346.08459036  .00042008  00000+0  12124-2 0  9990
2 65965  51.8809  23.9115 0007466  24.0656 336.0677 15.35246407 10315
KUIPER-00141            
1 65966U 25228V   25346.12277859  .00073893  00000+0  20354-2 0  9997
2 65966  51.8801  23.4164 0006211  10.4313 349.6801 15.36458689 10321
KUIPER-00146            
1 65967U 25228W   25346.13334510  .00059776  00000+0  16926-2 0  9991
2 65967  51.8812  23.4942 0007364  16.1915 343.9305 15.35687638 10322
KUIPER-00149            
1 65968U 25228X   25345.40427051  .00053556  00000+0  15072-2 0  9995
2 65968  51.8797  26.8543 0005284  10.9654 349.1447 15.35938293 10219
KUIPER-00154            
1 65969U 25228Y   25346.12430433  .00061311  00000+0  17175-2 0  9998
2 65969  51.8791  23.4285 0006206   0.7300 359.3694 15.36018686 10325
